start=new Date('2022-11-04T00:00:00.000Z').valueOf();
sats=[{"EPOCH":"2022-11-03T22:00:00.999936","TIME_SYSTEM":"UTC","MEAN_MOTION_DDOT":"0.0000000000000","LAUNCH_DATE":"2022-10-20","GP_ID":"216864667","INCLINATION":"53.2150","ARG_OF_PERICENTER":"32.6964","OBJECT_NAME":"STARLINK-5200","EPHEMERIS_TYPE":"0","APOAPSIS":"350.709","SITE":"AFETR","DECAY_DATE":null,"COUNTRY_CODE":"US","TLE_LINE2":"2 54103  53.2150  77.0572 0001670  32.6964 267.3550 15.73261264  1302","MEAN_MOTION":"15.73261264","CLASSIFICATION_TYPE":"U","OBJECT_ID":"2022-136BE","PERIOD":"91.530","FILE":"3644033","REF_FRAME":"TEME","REV_AT_EPOCH":"130","RCS_SIZE":"MEDIUM","ECCENTRICITY":"0.00016700","MEAN_ELEMENT_THEORY":"SGP4","RA_OF_ASC_NODE":"77.0572","BSTAR":"-0.00002958700000","NORAD_CAT_ID":"54103","SEMIMAJOR_AXIS":"6727.721","PERIAPSIS":"348.462","MEAN_MOTION_DOT":"-0.00004782","TLE_LINE1":"1 54103U 22136BE  22307.91667824 -.00004782  00000-0 -29587-4 0  9992","OBJECT_TYPE":"PAYLOAD","CENTER_NAME":"EARTH","ELEMENT_SET_NO":"999","MEAN_ANOMALY":"267.3550"},{"REF_FRAME":"TEME","MEAN_ELEMENT_THEORY":"SGP4","ECCENTRICITY":"0.00017340","RCS_SIZE":"MEDIUM","REV_AT_EPOCH":"130","SEMIMAJOR_AXIS":"6727.672","NORAD_CAT_ID":"54104","BSTAR":"-0.00027450000000","RA_OF_ASC_NODE":"77.0579","OBJECT_TYPE":"PAYLOAD","TLE_LINE1":"1 54104U 22136BF  22307.91667824 -.00039097  00000-0 -27450-3 0  9996","MEAN_MOTION_DOT":"-0.00039097","PERIAPSIS":"348.371","CENTER_NAME":"EARTH","MEAN_ANOMALY":"270.8444","ELEMENT_SET_NO":"999","EPOCH":"2022-11-03T22:00:00.999936","MEAN_MOTION_DDOT":"0.0000000000000","LAUNCH_DATE":"2022-10-20","TIME_SYSTEM":"UTC","GP_ID":"216864772","INCLINATION":"53.2158","SITE":"AFETR","APOAPSIS":"350.704","OBJECT_NAME":"STARLINK-5203","ARG_OF_PERICENTER":"29.7875","EPHEMERIS_TYPE":"0","MEAN_MOTION":"15.73278172","TLE_LINE2":"2 54104  53.2158  77.0579 0001734  29.7875 270.8444 15.73278172  1304","COUNTRY_CODE":"US","DECAY_DATE":null,"FILE":"3644033","PERIOD":"91.529","OBJECT_ID":"2022-136BF","CLASSIFICATION_TYPE":"U"}];
